NORAD_CAT_ID,OBJECT_NAME,OBJECT_TYPE,EPOCH,MEAN_MOTION,ECCENTRICITY,INCLINATION,RA_OF_ASC_NODE,ARG_OF_PERICENTER,MEAN_ANOMALY,BSTAR,MEAN_MOTION_DOT,MEAN_MOTION_DDOT,TLE_LINE0,TLE_LINE1,TLE_LINE2,SEMIMAJOR_AXIS,PERIOD,APOGEE,PERIGEE,DECAYED
52283.0,STARLINK-3789,PAYLOAD,2023-11-25 05:51:47,15.08860499,0.0001622,53.2177,259.5806,110.4845,249.6322,0.0008555,0.00013361,0.0,0 STARLINK-3789,1 52283U 22041Y   23329.24430287  .00013361  00000-0  85550-3 0  9998,2 52283  53.2177 259.5806 0001622 110.4845 249.6322 15.08860499 88246,6917.818,95.436,540.805,538.561,0.0
52283.0,STARLINK-3789,PAYLOAD,2023-11-26 00:56:24,15.08878846,0.0001626,53.218,256.0148,104.5201,255.5971,0.00098788,0.00015486,0.0,0 STARLINK-3789,1 52283U 22041Y   23330.03917407  .00015486  00000-0  98788-3 0  9998,2 52283  53.2180 256.0148 0001626 104.5201 255.5971 15.08878846 89584,6917.762,95.435,540.751,538.502,0.0
52283.0,STARLINK-3789,PAYLOAD,2023-11-27 03:57:59,15.08820053,0.0001558,53.2171,250.9554,120.706,239.4086,-0.00020562,-3.557e-05,0.0,0 STARLINK-3789,1 52283U 22041Y   23331.16526982 -.00003557  00000-0 -20562-3 0  9990,2 52283  53.2171 250.9554 0001558 120.7060 239.4086 15.08820053 89759,6917.941,95.439,540.884,538.729,0.0
52283.0,STARLINK-3789,PAYLOAD,2023-11-28 02:13:23,15.08849083,0.0001565,53.2178,246.7979,106.8561,253.2603,0.0012681,0.00019956,0.0,0 STARLINK-3789,1 52283U 22041Y   23332.09263094  .00019956  00000-0  12681-2 0  9995,2 52283  53.2178 246.7979 0001565 106.8561 253.2603 15.08849083 89897,6917.853,95.437,540.8,538.635,0.0
52283.0,STARLINK-3789,PAYLOAD,2023-11-28 03:48:46,15.08853727,0.0001536,53.2177,246.4977,111.184,248.9317,0.0013833,0.00021804,0.0,0 STARLINK-3789,1 52283U 22041Y   23332.15886944  .00021804  00000-0  13833-2 0  9992,2 52283  53.2177 246.4977 0001536 111.1840 248.9317 15.08853727 88687,6917.838,95.437,540.766,538.641,0.0
52283.0,STARLINK-3789,PAYLOAD,2023-11-28 18:07:14,15.08841839,0.0001331,53.2172,243.8216,109.1413,250.9723,0.00017577,2.511e-05,0.0,0 STARLINK-3789,1 52283U 22041Y   23332.75503314  .00002511  00000-0  17577-3 0  9999,2 52283  53.2172 243.8216 0001331 109.1413 250.9723 15.08841839 89995,6917.875,95.437,540.661,538.819,0.0
52283.0,STARLINK-3789,PAYLOAD,2023-11-28 22:53:24,15.08850816,0.0001351,53.2165,242.9297,112.9418,247.1717,0.00034765,5.251e-05,0.0,0 STARLINK-3789,1 52283U 22041Y   23332.95375028  .00005251  00000-0  34765-3 0  9992,2 52283  53.2165 242.9297 0001351 112.9418 247.1717 15.08850816 88800,6917.847,95.437,540.647,538.778,0.0
52283.0,STARLINK-3789,PAYLOAD,2023-11-29 03:39:33,15.08862943,0.0001425,53.2162,242.0368,116.3924,243.7214,0.00071907,0.00011182,0.0,0 STARLINK-3789,1 52283U 22041Y   23333.15246573  .00011182  00000-0  71907-3 0  9996,2 52283  53.2162 242.0368 0001425 116.3924 243.7214 15.08862943 90057,6917.81,95.436,540.661,538.689,0.0
52283.0,STARLINK-3789,PAYLOAD,2023-11-30 00:19:34,15.0884633,0.0001638,53.2173,238.1708,100.9027,259.2149,0.00085327,0.0001332,0.0,0 STARLINK-3789,1 52283U 22041Y   23334.01359144  .00013320  00000-0  85327-3 0  9998,2 52283  53.2173 238.1708 0001638 100.9027 259.2149 15.08846330 90187,6917.861,95.437,540.859,538.593,0.0
52283.0,STARLINK-3789,PAYLOAD,2023-12-01 03:21:07,15.08848926,0.0001629,53.2168,233.114,104.0636,256.0537,0.00028346,4.227e-05,0.0,0 STARLINK-3789,1 52283U 22041Y   23335.13966811  .00004227  00000-0  28346-3 0  9991,2 52283  53.2168 233.1140 0001629 104.0636 256.0537 15.08848926 90355,6917.853,95.437,540.845,538.591,0.0
52283.0,STARLINK-3789,PAYLOAD,2023-12-01 22:25:44,15.08850482,0.0001822,53.2167,229.5439,111.3227,248.796,0.0002121,3.09e-05,0.0,0 STARLINK-3789,1 52283U 22041Y   23335.93454599  .00003090  00000-0  21210-3 0  9994,2 52283  53.2167 229.5439 0001822 111.3227 248.7960 15.08850482 89251,6917.848,95.437,540.974,538.453,0.0
52283.0,STARLINK-3789,PAYLOAD,2023-12-02 03:11:53,15.08869147,0.0001545,53.2166,228.6546,102.7559,257.3606,0.0006117,9.468e-05,0.0,0 STARLINK-3789,1 52283U 22041Y   23336.13325976  .00009468  00000-0  61170-3 0  9997,2 52283  53.2166 228.6546 0001545 102.7559 257.3606 15.08869147 89287,6917.791,95.436,540.725,538.588,0.0
52283.0,STARLINK-3789,PAYLOAD,2023-12-02 22:16:32,15.08826103,0.0001727,53.2166,225.0838,106.2213,253.8969,-0.0001784,-3.125e-05,0.0,0 STARLINK-3789,1 52283U 22041Y   23336.92815600 -.00003125  00000-0 -17840-3 0  9993,2 52283  53.2166 225.0838 0001727 106.2213 253.8969 15.08826103 89402,6917.923,95.438,540.983,538.593,0.0
52283.0,STARLINK-3789,PAYLOAD,2023-12-04 01:18:06,15.08833464,0.0001484,53.2156,220.0335,74.9651,285.1505,8.4825e-05,1.062e-05,0.0,0 STARLINK-3789,1 52283U 22041Y   23338.05424549  .00001062  00000-0  84825-4 0  9991,2 52283  53.2156 220.0335 0001484  74.9651 285.1505 15.08833464 90791,6917.9,95.438,540.792,538.739,0.0
52283.0,STARLINK-3789,PAYLOAD,2023-12-04 23:33:30,15.08851548,0.0001495,53.2151,215.8711,71.8469,288.2686,0.00047497,7.282e-05,0.0,0 STARLINK-3789,1 52283U 22041Y   23338.98160062  .00007282  00000-0  47497-3 0  9993,2 52283  53.2151 215.8711 0001495  71.8469 288.2686 15.08851548 90934,6917.845,95.437,540.744,538.676,0.0
52283.0,STARLINK-3789,PAYLOAD,2023-12-06 00:59:40,15.0884843,0.0001472,53.2175,211.1113,82.3875,277.7284,8.787e-05,1.111e-05,0.0,0 STARLINK-3789,1 52283U 22041Y   23340.04143660  .00001111  00000-0  87870-4 0  9993,2 52283  53.2175 211.1113 0001472  82.3875 277.7284 15.08848430 91099,6917.855,95.437,540.738,538.701,0.0
52283.0,STARLINK-3789,PAYLOAD,2023-12-07 15:08:55,15.08836576,0.0001329,53.2164,203.9747,86.647,273.4674,-4.1084e-05,-9.42e-06,0.0,0 STARLINK-3789,1 52283U 22041Y   23341.63120082 -.00000942  00000-0 -41084-4 0  9992,2 52283  53.2164 203.9747 0001329  86.6470 273.4674 15.08836576 90114,6917.891,95.438,540.675,538.836,0.0
52283.0,STARLINK-3789,PAYLOAD,2023-12-08 00:41:14,15.088395,0.0001682,53.2166,202.1906,74.8806,285.2372,2.8238e-05,1.61e-06,0.0,0 STARLINK-3789,1 52283U 22041Y   23342.02864145  .00000161  00000-0  28238-4 0  9998,2 52283  53.2166 202.1906 0001682  74.8806 285.2372 15.08839500 90170,6917.882,95.438,540.911,538.583,0.0
52283.0,STARLINK-3789,PAYLOAD,2023-12-10 19:27:26,15.08840853,0.0001355,53.2167,189.702,105.4135,254.7007,3.196e-05,2.21e-06,0.0,0 STARLINK-3789,1 52283U 22041Y   23344.81071888  .00000221  00000-0  31960-4 0  9994,2 52283  53.2167 189.7020 0001355 105.4135 254.7007 15.08840853 91812,6917.878,95.438,540.68,538.805,0.0
52283.0,STARLINK-3789,PAYLOAD,2023-12-11 19:18:13,15.08837596,0.000134,53.2161,185.2381,100.1102,260.0041,2.1482e-05,5.4e-07,0.0,0 STARLINK-3789,1 52283U 22041Y   23345.80432400  .00000054  00000-0  21482-4 0  9997,2 52283  53.2161 185.2381 0001340 100.1102 260.0041 15.08837596 91961,6917.888,95.438,540.68,538.826,0.0
52283.0,STARLINK-3789,PAYLOAD,2023-12-11 20:53:36,15.08834392,0.0001294,53.2158,184.9435,100.1595,259.9544,6.3378e-05,7.21e-06,0.0,0 STARLINK-3789,1 52283U 22041Y   23345.87056301  .00000721  00000-0  63378-4 0  9997,2 52283  53.2158 184.9435 0001294 100.1595 259.9544 15.08834392 90759,6917.898,95.438,540.658,538.867,0.0
52283.0,STARLINK-3789,PAYLOAD,2023-12-12 20:44:23,15.08839646,0.00013,53.2159,180.4838,99.4207,260.6932,9.0953e-05,1.16e-05,0.0,0 STARLINK-3789,1 52283U 22041Y   23346.86416264  .00001160  00000-0  90953-4 0  9992,2 52283  53.2159 180.4838 0001300  99.4207 260.6932 15.08839646 90900,6917.881,95.438,540.646,538.847,0.0
52283.0,STARLINK-3789,PAYLOAD,2023-12-13 20:35:10,15.08841424,0.0001358,53.2161,176.0244,90.7789,269.3359,7.957e-05,9.79e-06,0.0,0 STARLINK-3789,1 52283U 22041Y   23347.85776283  .00000979  00000-0  79570-4 0  9991,2 52283  53.2161 176.0244 0001358  90.7789 269.3359 15.08841424 91050,6917.876,95.437,540.68,538.802,0.0
52283.0,STARLINK-3789,PAYLOAD,2023-12-14 18:50:34,15.08841389,0.0001417,53.2161,171.8627,86.6232,273.4922,5.1208e-05,5.27e-06,0.0,0 STARLINK-3789,1 52283U 22041Y   23348.78512445  .00000527  00000-0  51208-4 0  9999,2 52283  53.2161 171.8627 0001417  86.6232 273.4922 15.08841389 92414,6917.876,95.437,540.721,538.761,0.0
52283.0,STARLINK-3789,PAYLOAD,2023-12-15 18:41:21,15.08840242,0.0001375,53.2161,167.3962,97.4942,262.6206,3.391e-05,2.52e-06,0.0,0 STARLINK-3789,1 52283U 22041Y   23349.77872399  .00000252  00000-0  33910-4 0  9991,2 52283  53.2161 167.3962 0001375  97.4942 262.6206 15.08840242 91340,6917.88,95.438,540.696,538.793,0.0
52283.0,STARLINK-3789,PAYLOAD,2023-12-16 18:32:08,15.08835472,0.0001293,53.2169,162.9359,87.0366,273.0774,0.00012793,1.748e-05,0.0,0 STARLINK-3789,1 52283U 22041Y   23350.77232471  .00001748  00000-0  12793-3 0  9990,2 52283  53.2169 162.9359 0001293  87.0366 273.0774 15.08835472 92710,6917.894,95.438,540.654,538.865,0.0
52283.0,STARLINK-3789,PAYLOAD,2023-12-17 15:12:09,15.08838287,0.0001369,53.2174,159.0726,89.5068,270.6081,4.0578e-05,3.58e-06,0.0,0 STARLINK-3789,1 52283U 22041Y   23351.63344698  .00000358  00000-0  40578-4 0  9990,2 52283  53.2174 159.0726 0001369  89.5068 270.6081 15.08838287 91621,6917.886,95.438,540.698,538.804,0.0
52283.0,STARLINK-3789,PAYLOAD,2023-12-17 18:22:55,15.08840547,0.0001362,53.217,158.4768,100.1141,260.0004,6.4156e-05,7.33e-06,0.0,0 STARLINK-3789,1 52283U 22041Y   23351.76592448  .00000733  00000-0  64156-4 0  9997,2 52283  53.2170 158.4768 0001362 100.1141 260.0004 15.08840547 91643,6917.879,95.438,540.686,538.802,0.0
52283.0,STARLINK-3789,PAYLOAD,2023-12-18 15:02:56,15.08843667,0.0001312,53.2174,154.6145,84.7561,275.3581,2.56e-05,1.2e-06,0.0,0 STARLINK-3789,1 52283U 22041Y   23352.62704443  .00000120  00000-0  25600-4 0  9994,2 52283  53.2174 154.6145 0001312  84.7561 275.3581 15.08843667 92996,6917.869,95.437,540.642,538.827,0.0
52283.0,STARLINK-3789,PAYLOAD,2023-12-19 14:53:43,15.08838806,0.0001393,53.2173,150.1535,104.8843,255.2303,6.9974e-05,8.26e-06,0.0,0 STARLINK-3789,1 52283U 22041Y   23353.62064675  .00000826  00000-0  69974-4 0  9996,2 52283  53.2173 150.1535 0001393 104.8843 255.2303 15.08838806 91925,6917.884,95.438,540.713,538.785,0.0
